{
  "norad_id": 60377,
  "name": "STARLINK-32269",
  "history": [
    {
      "epoch": "2026-03-28T17:39:03.286080Z",
      "apogee_km": 475.9747679493439,
      "perigee_km": 474.47333361033907,
      "latitude_deg": -1.0101402889729714e-08,
      "longitude_deg": 130.21207489979906,
      "height_km": 476.01816194727513,
      "semi_major_axis_km": 6853.361050779841,
      "eccentricity": 0.00010954,
      "inclination_deg": 53.16,
      "raan_deg": 221.1274,
      "arg_perigee_deg": 82.0203,
      "mean_anomaly_deg": 278.0922,
      "mean_motion_rev_day": 15.30196992
    },
    {
      "epoch": "2026-03-29T01:29:19.608000Z",
      "apogee_km": 476.34387121791497,
      "perigee_km": 474.14119503596885,
      "latitude_deg": 1.3382328314046527e-05,
      "longitude_deg": 10.808987037905116,
      "height_km": 476.7714319499288,
      "semi_major_axis_km": 6853.379533126942,
      "eccentricity": 0.0001607,
      "inclination_deg": 53.1605,
      "raan_deg": 219.6142,
      "arg_perigee_deg": 124.9461,
      "mean_anomaly_deg": 235.1691,
      "mean_motion_rev_day": 15.30190802
    },
    {
      "epoch": "2026-03-29T20:17:57.464736Z",
      "apogee_km": 476.0993680256688,
      "perigee_km": 474.34874547733125,
      "latitude_deg": 2.0205589209492544e-05,
      "longitude_deg": 84.23563568816377,
      "height_km": 476.06538181696874,
      "semi_major_axis_km": 6853.3610567515,
      "eccentricity": 0.00012772,
      "inclination_deg": 53.1597,
      "raan_deg": 215.9711,
      "arg_perigee_deg": 86.2854,
      "mean_anomaly_deg": 273.8293,
      "mean_motion_rev_day": 15.3019699
    },
    {
      "epoch": "2026-03-30T15:06:36.599328Z",
      "apogee_km": 476.14843428478525,
      "perigee_km": 474.3617549657165,
      "latitude_deg": 3.309828189425147e-05,
      "longitude_deg": 157.66215028931055,
      "height_km": 476.22798827863596,
      "semi_major_axis_km": 6853.39209462525,
      "eccentricity": 0.00013035,
      "inclination_deg": 53.1607,
      "raan_deg": 212.3332,
      "arg_perigee_deg": 94.8027,
      "mean_anomaly_deg": 265.3123,
      "mean_motion_rev_day": 15.30186595
    },
    {
      "epoch": "2026-03-30T19:48:45.792000Z",
      "apogee_km": 476.0208776715863,
      "perigee_km": 474.44515083790884,
      "latitude_deg": -9.735996564574023e-06,
      "longitude_deg": 86.01718879240953,
      "height_km": 475.91065732879775,
      "semi_major_axis_km": 6853.370014254747,
      "eccentricity": 0.00011496,
      "inclination_deg": 53.1598,
      "raan_deg": 211.4197,
      "arg_perigee_deg": 73.7369,
      "mean_anomaly_deg": 286.3758,
      "mean_motion_rev_day": 15.3019399
    },
    {
      "epoch": "2026-03-31T14:37:25.552128Z",
      "apogee_km": 475.92371765414646,
      "perigee_km": 474.65309258403795,
      "latitude_deg": -3.73566755389328e-06,
      "longitude_deg": 159.43838497421478,
      "height_km": 475.6824171742699,
      "semi_major_axis_km": 6853.425405119092,
      "eccentricity": 9.27e-05,
      "inclination_deg": 53.159,
      "raan_deg": 207.7791,
      "arg_perigee_deg": 37.3718,
      "mean_anomaly_deg": 322.7347,
      "mean_motion_rev_day": 15.30175439
    },
    {
      "epoch": "2026-04-01T07:51:59.244192Z",
      "apogee_km": 476.50111451374687,
      "perigee_km": 473.9598858446816,
      "latitude_deg": -3.033110073001569e-05,
      "longitude_deg": -103.24524969586258,
      "height_km": 476.02018665515936,
      "semi_major_axis_km": 6853.367500179214,
      "eccentricity": 0.0001854,
      "inclination_deg": 53.1598,
      "raan_deg": 204.444,
      "arg_perigee_deg": 85.1441,
      "mean_anomaly_deg": 274.9771,
      "mean_motion_rev_day": 15.30194832
    },
    {
      "epoch": "2026-04-02T10:30:54.470016Z",
      "apogee_km": 476.17564185674473,
      "perigee_km": 474.4077313927437,
      "latitude_deg": -2.9822992625060313e-05,
      "longitude_deg": -149.2253779279536,
      "height_km": 475.5330644710159,
      "semi_major_axis_km": 6853.428686624744,
      "eccentricity": 0.00012898,
      "inclination_deg": 53.1605,
      "raan_deg": 199.2884,
      "arg_perigee_deg": 41.9614,
      "mean_anomaly_deg": 318.1485,
      "mean_motion_rev_day": 15.3017434
    },
    {
      "epoch": "2026-04-03T13:09:50.465664Z",
      "apogee_km": 476.02788795022116,
      "perigee_km": 474.670897644447,
      "latitude_deg": -5.3293795444952785e-06,
      "longitude_deg": 164.78829454337472,
      "height_km": 475.9829213425037,
      "semi_major_axis_km": 6853.486392797334,
      "eccentricity": 9.9e-05,
      "inclination_deg": 53.16,
      "raan_deg": 194.1298,
      "arg_perigee_deg": 67.0084,
      "mean_anomaly_deg": 293.1021,
      "mean_motion_rev_day": 15.30155014
    },
    {
      "epoch": "2026-04-04T12:40:35.302368Z",
      "apogee_km": 476.0102607688523,
      "perigee_km": 474.37560451331865,
      "latitude_deg": 2.9056508447106674e-06,
      "longitude_deg": 166.58285834264078,
      "height_km": 475.9390036449469,
      "semi_major_axis_km": 6853.329932641085,
      "eccentricity": 0.00011926,
      "inclination_deg": 53.1607,
      "raan_deg": 189.5768,
      "arg_perigee_deg": 79.2666,
      "mean_anomaly_deg": 280.8469,
      "mean_motion_rev_day": 15.30207414
    },
    {
      "epoch": "2026-04-05T12:11:25.642752Z",
      "apogee_km": 476.3925333078123,
      "perigee_km": 474.2831708178446,
      "latitude_deg": 5.893147470816952e-05,
      "longitude_deg": 168.359762139868,
      "height_km": 476.64602599564205,
      "semi_major_axis_km": 6853.474852062828,
      "eccentricity": 0.00015389,
      "inclination_deg": 53.1603,
      "raan_deg": 185.0291,
      "arg_perigee_deg": 112.8942,
      "mean_anomaly_deg": 247.2222,
      "mean_motion_rev_day": 15.30158879
    },
    {
      "epoch": "2026-04-05T23:09:47.240640Z",
      "apogee_km": 476.3455862128985,
      "perigee_km": 474.2191072579935,
      "latitude_deg": -4.5805044399729566e-05,
      "longitude_deg": 1.192960707041862,
      "height_km": 476.6349122190416,
      "semi_major_axis_km": 6853.419346735446,
      "eccentricity": 0.00015514,
      "inclination_deg": 53.1617,
      "raan_deg": 182.903,
      "arg_perigee_deg": 115.307,
      "mean_anomaly_deg": 244.8091,
      "mean_motion_rev_day": 15.30177468
    },
    {
      "epoch": "2026-04-07T11:13:00.253056Z",
      "apogee_km": 476.13258437274817,
      "perigee_km": 474.4042925892718,
      "latitude_deg": 1.3552911655373973e-05,
      "longitude_deg": 171.9297132774609,
      "height_km": 476.8438213699722,
      "semi_major_axis_km": 6853.40543848101,
      "eccentricity": 0.00012609,
      "inclination_deg": 53.1623,
      "raan_deg": 175.9246,
      "arg_perigee_deg": 141.5155,
      "mean_anomaly_deg": 218.5936,
      "mean_motion_rev_day": 15.30182126
    },
    {
      "epoch": "2026-04-08T13:51:54.464544Z",
      "apogee_km": 476.05679252347,
      "perigee_km": 474.4396677445675,
      "latitude_deg": -2.8601552398341576e-05,
      "longitude_deg": 125.95198675259896,
      "height_km": 476.75336439503394,
      "semi_major_axis_km": 6853.3852301340185,
      "eccentricity": 0.00011798,
      "inclination_deg": 53.1618,
      "raan_deg": 170.7672,
      "arg_perigee_deg": 138.5691,
      "mean_anomaly_deg": 221.5399,
      "mean_motion_rev_day": 15.30188894
    },
    {
      "epoch": "2026-04-09T11:48:39.072960Z",
      "apogee_km": 475.9071436044105,
      "perigee_km": 474.5858112699598,
      "latitude_deg": 1.4028663416799698e-05,
      "longitude_deg": 151.61846849502163,
      "height_km": 476.5106676743251,
      "semi_major_axis_km": 6853.383477437184,
      "eccentricity": 9.64e-05,
      "inclination_deg": 53.1598,
      "raan_deg": 166.5208,
      "arg_perigee_deg": 123.5914,
      "mean_anomaly_deg": 236.5179,
      "mean_motion_rev_day": 15.30189481
    },
    {
      "epoch": "2026-04-09T11:48:39.073824Z",
      "apogee_km": 475.90728067207874,
      "perigee_km": 474.58567420229065,
      "latitude_deg": 1.2489901884642633e-05,
      "longitude_deg": 151.6184637387127,
      "height_km": 476.5107435080367,
      "semi_major_axis_km": 6853.383477437184,
      "eccentricity": 9.642e-05,
      "inclination_deg": 53.1598,
      "raan_deg": 166.5208,
      "arg_perigee_deg": 123.5914,
      "mean_anomaly_deg": 236.5179,
      "mean_motion_rev_day": 15.30189481
    },
    {
      "epoch": "2026-04-11T20:14:34.099008Z",
      "apogee_km": 475.9937786288374,
      "perigee_km": 474.4737009987466,
      "latitude_deg": 7.312630638877985e-06,
      "longitude_deg": 11.899805211685955,
      "height_km": 476.00257143103624,
      "semi_major_axis_km": 6853.370739813792,
      "eccentricity": 0.0001109,
      "inclination_deg": 53.1601,
      "raan_deg": 155.599,
      "arg_perigee_deg": 80.1902,
      "mean_anomaly_deg": 279.9224,
      "mean_motion_rev_day": 15.30193747
    },
    {
      "epoch": "2026-04-13T03:35:38.068224Z",
      "apogee_km": 475.966907389623,
      "perigee_km": 474.5060422997258,
      "latitude_deg": -2.131976573611159e-05,
      "longitude_deg": -105.72199921760733,
      "height_km": 475.9866374439335,
      "semi_major_axis_km": 6853.373474844674,
      "eccentricity": 0.00010658,
      "inclination_deg": 53.1595,
      "raan_deg": 149.5313,
      "arg_perigee_deg": 78.2963,
      "mean_anomaly_deg": 281.8157,
      "mean_motion_rev_day": 15.30192831
    },
    {
      "epoch": "2026-04-14T12:30:45.654336Z",
      "apogee_km": 476.0120778393584,
      "perigee_km": 474.6075324511112,
      "latitude_deg": -3.0306230848773112e-05,
      "longitude_deg": 112.77436056843928,
      "height_km": 476.38524731714574,
      "semi_major_axis_km": 6853.446805145234,
      "eccentricity": 0.00010247,
      "inclination_deg": 53.1596,
      "raan_deg": 143.1612,
      "arg_perigee_deg": 104.602,
      "mean_anomaly_deg": 255.5094,
      "mean_motion_rev_day": 15.30168272
    },
    {
      "epoch": "2026-04-15T08:53:26.593152Z",
      "apogee_km": 476.03905707067133,
      "perigee_km": 474.416043277899,
      "latitude_deg": -3.0403680092730987e-06,
      "longitude_deg": 162.32340764076193,
      "height_km": 476.01217000529795,
      "semi_major_axis_km": 6853.364550174285,
      "eccentricity": 0.00011841,
      "inclination_deg": 53.1597,
      "raan_deg": 139.2177,
      "arg_perigee_deg": 81.956,
      "mean_anomaly_deg": 278.1575,
      "mean_motion_rev_day": 15.3019582
    }
  ]
}